{"type":"FeatureCollection","features":[{"type":"Feature","geometry":{"type":"Polygon","coordinates":[[[106.8958068,-6.4718481,0],[106.8962467,-6.4723305,0],[106.8963701,-6.4722186,0],[106.8959409,-6.4717282,0],[106.8958068,-6.4718481,0]]]},"properties":{"name":"Gudang Baru","styleUrl":"#poly-A52714-1200-161-nodesc","fill-opacity":0.6313725490196078,"fill":"#a52714","stroke-opacity":1,"stroke":"#a52714","stroke-width":1.2}},{"type":"Feature","geometry":{"type":"Polygon","coordinates":[[[106.8945887,-6.473364,0],[106.8946732,-6.4734026,0],[106.8946866,-6.47336,0],[106.8946008,-6.473336,0],[106.8945887,-6.473364,0]]]},"properties":{"name":"POS 1","description":"pos satpam 1","styleUrl":"#poly-E65100-1200-77","fill-opacity":0.30196078431372547,"fill":"#e65100","stroke-opacity":1,"stroke":"#e65100","stroke-width":1.2}},{"type":"Feature","geometry":{"type":"Polygon","coordinates":[[[106.8948781,-6.4715114,0],[106.8949706,-6.471626,0],[106.8950377,-6.47155,0],[106.8950793,-6.4715101,0],[106.8951101,-6.4715327,0],[106.8951396,-6.4715221,0],[106.8951745,-6.471554,0],[106.895255,-6.4714994,0],[106.895263,-6.4714554,0],[106.8950699,-6.4713621,0],[106.8948781,-6.4715114,0]]]},"properties":{"name":"POS 3","description":"Pos Satpam 3","styleUrl":"#poly-F9A825-1200-77","fill-opacity":0.30196078431372547,"fill":"#f9a825","stroke-opacity":1,"stroke":"#f9a825","stroke-width":1.2}},{"type":"Feature","geometry":{"type":"Polygon","coordinates":[[[106.8943308,-6.4720948,0],[106.8943979,-6.4720282,0],[106.894422,-6.4717617,0],[106.894481,-6.4715431,0],[106.894532,-6.4714978,0],[106.8946929,-6.4716044,0],[106.8948324,-6.4714925,0],[106.8946232,-6.4712873,0],[106.8947358,-6.4711434,0],[106.8944917,-6.4708395,0],[106.8944569,-6.4708555,0],[106.8943201,-6.4709275,0],[106.894186,-6.4709035,0],[106.8941082,-6.4709462,0],[106.8941779,-6.4711167,0],[106.8941699,-6.471226,0],[106.894245,-6.4713379,0],[106.8943442,-6.4714738,0],[106.8943871,-6.4714392,0],[106.8944408,-6.4714952,0],[106.8943442,-6.471823,0],[106.8943308,-6.4720948,0]]]},"properties":{"name":"Housing","styleUrl":"#poly-FFD600-1200-77-nodesc","fill-opacity":0.30196078431372547,"fill":"#ffd600","stroke-opacity":1,"stroke":"#ffd600","stroke-width":1.2}},{"type":"Feature","geometry":{"type":"Polygon","coordinates":[[[106.8936952,-6.4727553,0],[106.8936509,-6.4727712,0],[106.8936053,-6.4728046,0],[106.8935812,-6.4728445,0],[106.8935745,-6.4729245,0],[106.8936241,-6.4730271,0],[106.8936737,-6.4730857,0],[106.8937314,-6.4730951,0],[106.893777,-6.4730711,0],[106.893832,-6.4731257,0],[106.8939714,-6.4731923,0],[106.8940251,-6.4731257,0],[106.8936952,-6.4727553,0]]]},"properties":{"name":"Area Packing","styleUrl":"#poly-817717-1200-77-nodesc","fill-opacity":0.30196078431372547,"fill":"#817717","stroke-opacity":1,"stroke":"#817717","stroke-width":1.2}},{"type":"Feature","geometry":{"type":"Polygon","coordinates":[[[106.895296,-6.4716248,0],[106.8954529,-6.4718074,0],[106.8956393,-6.4720072,0],[106.8958068,-6.4718481,0],[106.8956326,-6.4716435,0],[106.8955454,-6.4717221,0],[106.8953952,-6.4715289,0],[106.895296,-6.4716248,0]]]},"properties":{"name":"Gudang Lama","styleUrl":"#poly-558B2F-1200-171-nodesc","fill-opacity":0.6705882352941176,"fill":"#558b2f","stroke-opacity":1,"stroke":"#558b2f","stroke-width":1.2}},{"type":"Feature","geometry":{"type":"Polygon","coordinates":[[[106.8953952,-6.4715289,0],[106.8955454,-6.4717221,0],[106.8956299,-6.4716355,0],[106.8958123,-6.4718367,0],[106.8959545,-6.4717074,0],[106.8960524,-6.4716115,0],[106.8960323,-6.4714676,0],[106.8957547,-6.4713356,0],[106.895693,-6.4715395,0],[106.8954019,-6.4714769,0],[106.895263,-6.4714554,0],[106.8952544,-6.4715075,0],[106.8953952,-6.4715289,0]]]},"properties":{"name":"Area Kantor Accounting","styleUrl":"#poly-558B2F-1200-77-nodesc","fill-opacity":0.30196078431372547,"fill":"#558b2f","stroke-opacity":1,"stroke":"#558b2f","stroke-width":1.2}},{"type":"Feature","geometry":{"type":"Polygon","coordinates":[[[106.8958713,-6.4726629,0],[106.8959102,-6.4727002,0],[106.8962951,-6.472375,0],[106.8962467,-6.4723305,0],[106.8958713,-6.4726629,0]]]},"properties":{"name":"Area Belakang OE Packing","styleUrl":"#poly-097138-1200-77-nodesc","fill-opacity":0.30196078431372547,"fill":"#097138","stroke-opacity":1,"stroke":"#097138","stroke-width":1.2}},{"type":"Feature","geometry":{"type":"Polygon","coordinates":[[[106.8955776,-6.4726695,0],[106.8957439,-6.4728121,0],[106.8958807,-6.4726749,0],[106.8957345,-6.4725189,0],[106.8955776,-6.4726695,0]]]},"properties":{"name":"Area Loading OE","styleUrl":"#poly-006064-1200-77-nodesc","fill-opacity":0.30196078431372547,"fill":"#006064","stroke-opacity":1,"stroke":"#006064","stroke-width":1.2}},{"type":"Feature","geometry":{"type":"Polygon","coordinates":[[[106.8954972,-6.4727322,0],[106.8953657,-6.4725949,0],[106.895174,-6.4727641,0],[106.8952839,-6.4728814,0],[106.8954972,-6.4727322,0]]]},"properties":{"name":"Area Workshop","styleUrl":"#poly-01579B-1200-77-nodesc","fill-opacity":0.30196078431372547,"fill":"#01579b","stroke-opacity":1,"stroke":"#01579b","stroke-width":1.2}},{"type":"Feature","geometry":{"type":"Polygon","coordinates":[[[106.8951131,-6.4726997,0],[106.8949615,-6.4728436,0],[106.8951305,-6.4730289,0],[106.8953062,-6.4729103,0],[106.8951131,-6.4726997,0]]]},"properties":{"name":"Area Tangga","styleUrl":"#poly-1A237E-1200-77-nodesc","fill-opacity":0.30196078431372547,"fill":"#1a237e","stroke-opacity":1,"stroke":"#1a237e","stroke-width":1.2}},{"type":"Feature","geometry":{"type":"Polygon","coordinates":[[[106.8952839,-6.4728814,0],[106.8956656,-6.4730475,0],[106.8958011,-6.4728823,0],[106.8954591,-6.472761,0],[106.8952839,-6.4728814,0]]]},"properties":{"name":"Area Masjid","styleUrl":"#poly-673AB7-1200-77-nodesc","fill-opacity":0.30196078431372547,"fill":"#673ab7","stroke-opacity":1,"stroke":"#673ab7","stroke-width":1.2}},{"type":"Feature","geometry":{"type":"Polygon","coordinates":[[[106.8947939,-6.4731341,0],[106.8948717,-6.4732181,0],[106.8951198,-6.4730249,0],[106.8950447,-6.4729502,0],[106.8947939,-6.4731341,0]]]},"properties":{"name":"Area HRD","styleUrl":"#poly-4E342E-1200-189-nodesc","fill-opacity":0.7411764705882353,"fill":"#4e342e","stroke-opacity":1,"stroke":"#4e342e","stroke-width":1.2}},{"type":"Feature","geometry":{"type":"Polygon","coordinates":[[[106.8948773,-6.4715451,0],[106.8948666,-6.4716171,0],[106.8947029,-6.471761,0],[106.894314,-6.4721048,0],[106.8942309,-6.4722141,0],[106.8940109,-6.4724806,0],[106.8937132,-6.4727471,0],[106.8937373,-6.4727977,0],[106.8940807,-6.4725125,0],[106.8942523,-6.472318,0],[106.8943248,-6.4721767,0],[106.8949706,-6.471626,0],[106.8948773,-6.4715451,0]]]},"properties":{"name":"Jalan Luar TR","styleUrl":"#poly-C2185B-1200-156-nodesc","fill-opacity":0.611764705882353,"fill":"#c2185b","stroke-opacity":1,"stroke":"#c2185b","stroke-width":1.2}},{"type":"Feature","geometry":{"type":"Polygon","coordinates":[[[106.8939714,-6.4731923,0],[106.8940797,-6.4732294,0],[106.8942325,-6.4732893,0],[106.8943854,-6.4733453,0],[106.8945598,-6.4734319,0],[106.8945906,-6.4733773,0],[106.8945289,-6.4733453,0],[106.8940206,-6.4731414,0],[106.8939714,-6.4731923,0]]]},"properties":{"name":"Jalan Luar Packing ke POS 1","styleUrl":"#poly-FF5252-1200-77-nodesc","fill-opacity":0.30196078431372547,"fill":"#ff5252","stroke-opacity":1,"stroke":"#ff5252","stroke-width":1.2}}]}